STARLINK-5769           
1 55585U 23020S   26102.54441468  .00000301  00000+0  20915-4 0  9996
2 55585  43.0033 163.3267 0001257 269.0512  91.0196 15.26737617174217
STARLINK-5767           
1 55586U 23020T   26102.63247443  .00000349  00000+0  22690-4 0  9998
2 55586  43.0025 173.5298 0001246 267.8917  92.1792 15.26737793174106
STARLINK-5727           
1 55587U 23020U   26102.50358730 -.00000454  00000+0 -72386-5 0  9994
2 55587  43.0010 174.2098 0001066 266.8597  93.2133 15.26741369174082
STARLINK-5728           
1 55588U 23020V   26102.63256718 -.00000002  00000+0  97704-5 0  9991
2 55588  43.0026 173.5309 0001257 271.9802  88.0906 15.25905114174107
STARLINK-5697           
1 55589U 23020W   26102.63167338  .00000352  00000+0  22301-4 0  9998
2 55589  43.0020 173.5198 0000991 260.2927  99.7813 15.27571739174101
STARLINK-5762           
1 55590U 23020X   26102.48994933  .00000175  00000+0  16190-4 0  9994
2 55590  43.0025 174.1826 0001274 267.6677  92.4028 15.26739818174089
STARLINK-5760           
1 55591U 23020Y   26102.63181928  .00002291  00000+0  94992-4 0  9991
2 55591  43.0024 173.5241 0000983 278.9463  81.1277 15.26758250174102
STARLINK-5759           
1 55592U 23020Z   26102.60725991  .00000385  00000+0  23504-4 0  9996
2 55592  43.0023 173.3417 0001566 277.0371  83.0302 15.27576356174107
STARLINK-5703           
1 55593U 23020AA  26102.21095359  .00055485  00000+0  20310-2 0  9993
2 55593  43.0022 175.5311 0001087 271.5910  88.4817 15.27250344174049
STARLINK-5750           
1 55594U 23020AB  26102.54516341  .00001155  00000+0  52753-4 0  9992
2 55594  43.0012 173.7354 0001538 272.2844  87.7831 15.26739935174091
STARLINK-5729           
1 55596U 23020AD  26102.55601354  .00024105  00000+0  88601-3 0  9994
2 55596  43.0020 173.8143 0001192 268.7038  91.3677 15.27453796174098
STARLINK-5743           
1 55597U 23020AE  26102.54738167  .00000133  00000+0  14651-4 0  9997
2 55597  43.0026 162.4967 0001403 265.4674  94.6017 15.26739601174228
STARLINK-5756           
1 55598U 23020AF  26102.86125656 -.00001709  00000+0 -52598-4 0  9990
2 55598  43.0013 161.3733 0001184 268.0734  91.9982 15.27569659174266
STARLINK-5761           
1 55599U 23020AG  26102.86140704  .00000348  00000+0  22643-4 0  9996
2 55599  43.0018 161.3773 0001251 274.3972  85.6737 15.26740120174266
STARLINK-5755           
1 55600U 23020AH  26102.64455870  .00002082  00000+0  85203-4 0  9996
2 55600  43.0017 162.3518 0001423 271.8823  88.1865 15.27569690174233
STARLINK-5744           
1 55601U 23020AJ  26102.58455764 -.00000239  00000+0  77188-6 0  9990
2 55601  43.0037 174.0254 0001570 268.7166  91.3506 15.26741982174098
STARLINK-5764           
1 55602U 23020AK  26102.52642038 -.00000298  00000+0 -14093-5 0  9998
2 55602  43.0004 163.1643 0001184 277.9506  82.1211 15.26748511174215
STARLINK-5735           
1 55603U 23020AL  26102.57028844  .00000352  00000+0  22795-4 0  9993
2 55603  43.0031 162.6603 0001813 273.2306  86.8338 15.26746659174225
STARLINK-5748           
1 55604U 23020AM  26101.53475204 -.00002940  00000+0 -10003-3 0  9990
2 55604  43.0039 153.9309 0000788 156.9163 203.1724 15.26720265174237
STARLINK-5725           
1 55605U 23020AN  26102.18939436 -.00017042  00000+0 -60965-3 0  9996
2 55605  43.0015 164.9522 0001240 266.1924  93.8786 15.27662094174164
STARLINK-5700           
1 55607U 23020AQ  26102.51219310  .00003942  00000+0  15645-3 0  9994
2 55607  42.9990 163.0787 0001518 266.3752  93.6925 15.26760431174210
STARLINK-5726           
1 55608U 23020AR  26102.86254889  .00000153  00000+0  15099-4 0  9998
2 55608  43.0016 161.3997 0001269 268.2533  91.8173 15.27564912174264
STARLINK-5719           
1 55609U 23020AS  26102.84325699 -.00000095  00000+0  61281-5 0  9996
2 55609  43.0010 161.2640 0001466 271.9329  88.1354 15.26741803174261
STARLINK-5722           
1 55610U 23020AT  26102.87025054  .00000682  00000+0  34311-4 0  9997
2 55610  43.0011 161.4536 0001068 274.0240  86.0490 15.27573172174265
STARLINK-5730           
1 55611U 23020AU  26102.86424949  .00004683  00000+0  18421-3 0  9991
2 55611  42.9989 161.4136 0000967 275.9809  84.0932 15.26724496174267
STARLINK-5734           
1 55612U 23020AV  26102.85686436 -.00001315  00000+0 -39389-4 0  9990
2 55612  42.9990 161.3621 0001173 263.4458  96.6260 15.26720750174262
STARLINK-5714           
1 55614U 23020AX  26102.83123580  .00000973  00000+0  45973-4 0  9999
2 55614  43.0020 146.4141 0001279 276.6982  83.3724 15.26736948174439
STARLINK-5712           
1 55615U 23020AY  26102.87094058  .00000267  00000+0  19636-4 0  9994
2 55615  43.0024 160.6092 0001373 266.1180  93.9514 15.26739226174274
STARLINK-5710           
1 55616U 23020AZ  26102.62588579  .00000702  00000+0  35850-4 0  9994
2 55616  43.0038 162.2133 0001737 272.6427  87.4226 15.26744362174235
STARLINK-5721           
1 55617U 23020BA  26102.54783549  .00000768  00000+0  38345-4 0  9994
2 55617  43.0020 162.4819 0001209 267.2533  92.8180 15.26724252174226
STARLINK-5717           
1 55618U 23020BB  26102.56663692  .00000508  00000+0  28620-4 0  9990
2 55618  43.0036 162.6270 0001933 277.6877  82.3754 15.26739077174229
STARLINK-5720           
1 55619U 23020BC  26102.84326775  .00000575  00000+0  30412-4 0  9996
2 55619  43.0019 161.2559 0001265 270.8460  89.2247 15.27576349174255
STARLINK-5718           
1 55620U 23020BD  26102.50215066  .00001093  00000+0  50418-4 0  9995
2 55620  43.0042 163.0007 0001950 283.5462  76.5172 15.26739565174217
STARLINK-5709           
1 55621U 23020BE  26102.22970327  .00000320  00000+0  21628-4 0  9996
2 55621  43.0041 164.3981 0001873 273.0502  87.0135 15.26740780174177
STARLINK-5702           
1 55622U 23020BF  26102.57180046 -.00012337  00000+0 -45035-3 0  9996
2 55622  43.0024 162.6620 0001582 250.4266 109.6415 15.26786781174222
STARLINK-5698           
1 55623U 23020BG  26102.66668980  .00047770  00000+0  17789-2 0  9996
2 55623  43.0001 162.2711 0001720 271.5185 191.6105 15.26743192  5996
STARLINK-5484           
1 55628U 23021A   26102.78762830  .00000118  00000+0  17685-4 0  9996
2 55628  69.9989 118.5710 0004013 267.3655  92.7045 14.98329381173403
STARLINK-5497           
1 55629U 23021B   26102.79180235  .00000577  00000+0  56176-4 0  9998
2 55629  69.9987 118.5868 0003442 279.3856  80.6914 14.98330398173408
STARLINK-5303           
1 55630U 23021C   26102.78345999 -.00000028  00000+0  54400-5 0  9990
2 55630  69.9987 118.5559 0003800 269.4550  90.6173 14.98324935173404
STARLINK-5558           
1 55631U 23021D   26102.75841816  .00000485  00000+0  48437-4 0  9995
2 55631  69.9979 118.4656 0003288 271.2670  88.8113 14.98337976173409
STARLINK-5546           
1 55632U 23021E   26102.77512009  .00000728  00000+0  68812-4 0  9996
2 55632  69.9989 118.5244 0002993 269.4043  90.6773 14.98325803173409
STARLINK-5498           
1 55633U 23021F   26102.43713091 -.00000034  00000+0  49629-5 0  9991
2 55633  69.9985 119.3527 0003619 269.3547  90.7197 14.98329587173351
STARLINK-5500           
1 55634U 23021G   26102.84176654 -.00158105  00000+0 -13291-1 0  9991
2 55634  69.9977 118.3569 0007013 289.4703  70.5698 14.99033660173400
STARLINK-5495           
1 55635U 23021H   26102.68724961  .00000129  00000+0  18613-4 0  9990
2 55635  69.9987  98.7527 0003781 268.4170  91.6556 14.98331786173888
STARLINK-5218           
1 55636U 23021J   26102.42878382 -.00002324  00000+0 -18712-3 0  9990
2 55636  69.9996 119.3241 0002683 266.3356  93.7497 14.98322433173353
STARLINK-5062           
1 55637U 23021K   26102.70395126  .00000479  00000+0  47904-4 0  9995
2 55637  69.9983  98.8068 0003417 270.0281  90.0487 14.98333790173888
STARLINK-5507           
1 55638U 23021L   26102.43295677 -.00000200  00000+0 -89453-5 0  9996
2 55638  69.9985 119.3381 0003536 268.8455  91.2299 14.98330634173358
STARLINK-5508           
1 55639U 23021M   26102.68324073 -.00000021  00000+0  60716-5 0  9998
2 55639  69.9986  98.7353 0003443 268.8389  91.2375 14.98331346173886
STARLINK-5069           
1 55640U 23021N   26102.27834454 -.00000672  00000+0 -48486-4 0  9996
2 55640  69.9979  99.7279 0003184 268.1333  91.9461 14.98333189173826
STARLINK-5065           
1 55641U 23021P   26102.44110455 -.00001314  00000+0 -10237-3 0  9990
2 55641  69.9978  99.4923 0003562 270.9664  89.1087 14.98313137173843
STARLINK-5483           
1 55643U 23021R   26102.71646987 -.00000113  00000+0 -16641-5 0  9999
2 55643  69.9985  98.8450 0003556 270.1641  89.9111 14.98331562173883
STARLINK-5502           
1 55644U 23021S   26102.02800142  .00000281  00000+0  31331-4 0  9995
2 55644  69.9987 100.4623 0003455 268.3874  91.6889 14.98333017173781
STARLINK-5510           
1 55647U 23021V   26102.72897715  .00000993  00000+0  91057-4 0  9998
2 55647  69.9981  98.4909 0003473 270.7881  89.2880 14.98316021173898
STARLINK-5501           
1 55648U 23021W   26102.69144257  .00000395  00000+0  40934-4 0  9995
2 55648  69.9984  98.7644 0003085 272.6798  87.4008 14.98322899173889
STARLINK-5469           
1 55649U 23021X   26102.40351494 -.00001984  00000+0 -15851-3 0  9994
2 55649  69.9993  99.3629 0003399 267.8886  92.1884 14.98329670173847
STARLINK-5494           
1 55650U 23021Y   26102.68307350 -.00002755  00000+0 -22314-3 0  9997
2 55650  69.9982  98.7342 0003158 270.0426  90.0371 14.98331845173880
STARLINK-5506           
1 55651U 23021Z   26102.43275369  .00000551  00000+0  53986-4 0  9995
2 55651  69.9983  99.4654 0003007 267.4600  92.6215 14.98326387173849
STARLINK-5487           
1 55652U 23021AA  26102.40768970  .00000430  00000+0  43857-4 0  9990
2 55652  69.9981  99.3776 0003550 270.0333  90.0419 14.98328292173843
STARLINK-5067           
1 55653U 23021AB  26102.72479286  .00000211  00000+0  25491-4 0  9996
2 55653  69.9984  98.4766 0003217 269.5684  90.5106 14.98330527173895
